start=new Date('2021-10-04T00:00:00.000Z').valueOf();
sats=[{"MEAN_ANOMALY":"290.3430","SEMIMAJOR_AXIS":"6925.388","MEAN_MOTION":"15.06387079","FILE":"3143202","TLE_LINE1":"1 48676U 21044AQ  21276.87017681 -.00001646  00000-0 -91628-4 0  9997","ELEMENT_SET_NO":"999","REF_FRAME":"TEME","EPOCH":"2021-10-03T20:53:03.276384","OBJECT_ID":"2021-044AQ","RCS_SIZE":"LARGE","REV_AT_EPOCH":"2000","EPHEMERIS_TYPE":"0","COUNTRY_CODE":"US","OBJECT_NAME":"STARLINK-2746","ECCENTRICITY":"0.00020160","NORAD_CAT_ID":"48676","OBJECT_TYPE":"PAYLOAD","PERIOD":"95.593","CENTER_NAME":"EARTH","SITE":"AFETR","TLE_LINE2":"2 48676  53.0554 174.2761 0002016  69.7775 290.3430 15.06387079 20002","LAUNCH_DATE":"2021-05-26","MEAN_MOTION_DOT":"-0.00001646","MEAN_ELEMENT_THEORY":"SGP4","PERIAPSIS":"545.857","MEAN_MOTION_DDOT":"0.0000000000000","BSTAR":"-0.00009162800000","INCLINATION":"53.0554","TIME_SYSTEM":"UTC","CLASSIFICATION_TYPE":"U","GP_ID":"186143821","ARG_OF_PERICENTER":"69.7775","RA_OF_ASC_NODE":"174.2761","APOAPSIS":"548.649","DECAY_DATE":null},{"RCS_SIZE":"LARGE","REV_AT_EPOCH":"2000","OBJECT_NAME":"STARLINK-2719","COUNTRY_CODE":"US","EPHEMERIS_TYPE":"0","ECCENTRICITY":"0.00018660","OBJECT_TYPE":"PAYLOAD","NORAD_CAT_ID":"48677","SITE":"AFETR","CENTER_NAME":"EARTH","PERIOD":"95.593","MEAN_ANOMALY":"294.0618","MEAN_MOTION":"15.06385927","SEMIMAJOR_AXIS":"6925.392","TLE_LINE1":"1 48677U 21044AR  21276.86648414 -.00001341  00000-0 -71190-4 0  9995","FILE":"3143202","ELEMENT_SET_NO":"999","REF_FRAME":"TEME","OBJECT_ID":"2021-044AR","EPOCH":"2021-10-03T20:47:44.229696","GP_ID":"186143605","ARG_OF_PERICENTER":"66.0566","RA_OF_ASC_NODE":"174.2918","APOAPSIS":"548.549","DECAY_DATE":null,"MEAN_MOTION_DOT":"-0.00001341","TLE_LINE2":"2 48677  53.0553 174.2918 0001866  66.0566 294.0618 15.06385927 20005","LAUNCH_DATE":"2021-05-26","MEAN_ELEMENT_THEORY":"SGP4","PERIAPSIS":"545.964","MEAN_MOTION_DDOT":"0.0000000000000","BSTAR":"-0.00007119000000","TIME_SYSTEM":"UTC","INCLINATION":"53.0553","CLASSIFICATION_TYPE":"U"},{"CLASSIFICATION_TYPE":"U","MEAN_MOTION_DDOT":"0.0000000000000","BSTAR":"0.00003634100000","TIME_SYSTEM":"UTC","INCLINATION":"53.0555","MEAN_ELEMENT_THEORY":"SGP4","PERIAPSIS":"545.955","MEAN_MOTION_DOT":"0.00000260","TLE_LINE2":"2 48678  53.0555 174.9064 0001839  71.6834 288.4355 15.06395190 19980","LAUNCH_DATE":"2021-05-26","DECAY_DATE":null,"ARG_OF_PERICENTER":"71.6834","APOAPSIS":"548.502","RA_OF_ASC_NODE":"174.9064","GP_ID":"186144036","OBJECT_ID":"2021-044AS","EPOCH":"2021-10-03T17:31:20.622720","ELEMENT_SET_NO":"999","REF_FRAME":"TEME","MEAN_MOTION":"15.06395190","SEMIMAJOR_AXIS":"6925.363","FILE":"3143202","TLE_LINE1":"1 48678U 21044AS  21276.73009980  .00000260  00000-0  36341-4 0  9997","MEAN_ANOMALY":"288.4355","OBJECT_TYPE":"PAYLOAD","NORAD_CAT_ID":"48678","CENTER_NAME":"EARTH","SITE":"AFETR","PERIOD":"95.592","ECCENTRICITY":"0.00018390","OBJECT_NAME":"STARLINK-2615","EPHEMERIS_TYPE":"0","COUNTRY_CODE":"US","RCS_SIZE":"LARGE","REV_AT_EPOCH":"1998"},{"PERIAPSIS":"546.046","MEAN_ELEMENT_THEORY":"SGP4","MEAN_MOTION_DOT":"0.00001066","LAUNCH_DATE":"2021-05-26","TLE_LINE2":"2 48679  53.0563 174.3276 0001686  67.2159 292.9008 15.06399831 20006","CLASSIFICATION_TYPE":"U","TIME_SYSTEM":"UTC","INCLINATION":"53.0563","BSTAR":"0.00009047200000","MEAN_MOTION_DDOT":"0.0000000000000","APOAPSIS":"548.382","RA_OF_ASC_NODE":"174.3276","ARG_OF_PERICENTER":"67.2159","GP_ID":"186143713","DECAY_DATE":null,"TLE_LINE1":"1 48679U 21044AT  21276.85910743  .00001066  00000-0  90472-4 0  9999","FILE":"3143202","MEAN_MOTION":"15.06399831","SEMIMAJOR_AXIS":"6925.349","MEAN_ANOMALY":"292.9008","OBJECT_ID":"2021-044AT","EPOCH":"2021-10-03T20:37:06.881952","REF_FRAME":"TEME","ELEMENT_SET_NO":"999","OBJECT_NAME":"STARLINK-2648","EPHEMERIS_TYPE":"0","COUNTRY_CODE":"US","REV_AT_EPOCH":"2000","RCS_SIZE":"LARGE","CENTER_NAME":"EARTH","SITE":"AFETR","PERIOD":"95.592","OBJECT_TYPE":"PAYLOAD","NORAD_CAT_ID":"48679","ECCENTRICITY":"0.00016860"},{"RCS_SIZE":"LARGE","REV_AT_EPOCH":"2000","EPHEMERIS_TYPE":"0","COUNTRY_CODE":"US","OBJECT_NAME":"STARLINK-2649","ECCENTRICITY":"0.00017350","NORAD_CAT_ID":"48680","OBJECT_TYPE":"PAYLOAD","PERIOD":"95.593","CENTER_NAME":"EARTH","SITE":"AFETR","MEAN_ANOMALY":"285.1464","SEMIMAJOR_AXIS":"6925.379","MEAN_MOTION":"15.06390058","FILE":"3143202","TLE_LINE1":"1 48680U 21044AU  21276.85542687 -.00001518  00000-0 -83039-4 0  9994","ELEMENT_SET_NO":"999","REF_FRAME":"TEME","EPOCH":"2021-10-03T20:31:48.881568","OBJECT_ID":"2021-044AU","GP_ID":"186143509","ARG_OF_PERICENTER":"74.9716","APOAPSIS":"548.446","RA_OF_ASC_NODE":"174.3434","DECAY_DATE":null,"LAUNCH_DATE":"2021-05-26","TLE_LINE2":"2 48680  53.0558 174.3434 0001735  74.9716 285.1464 15.06390058 20009","MEAN_MOTION_DOT":"-0.00001518","MEAN_ELEMENT_THEORY":"SGP4","PERIAPSIS":"546.042","MEAN_MOTION_DDOT":"0.0000000000000","BSTAR":"-0.00008303900000","INCLINATION":"53.0558","TIME_SYSTEM":"UTC","CLASSIFICATION_TYPE":"U"},{"OBJECT_NAME":"STARLINK-2725","COUNTRY_CODE":"US","EPHEMERIS_TYPE":"0","RCS_SIZE":"LARGE","REV_AT_EPOCH":"375","OBJECT_TYPE":"PAYLOAD","NORAD_CAT_ID":"48681","SITE":"AFETR","CENTER_NAME":"EARTH","PERIOD":"95.313","ECCENTRICITY":"0.00015030","MEAN_MOTION":"15.10809980","SEMIMAJOR_AXIS":"6911.865","TLE_LINE1":"1 48681U 21044AV  21276.91668981 -.01062253  00000-0 -68231-1 0  9996","FILE":"3143202","MEAN_ANOMALY":"29.5596","OBJECT_ID":"2021-044AV","EPOCH":"2021-10-03T22:00:01.999584","ELEMENT_SET_NO":"999","REF_FRAME":"TEME","ARG_OF_PERICENTER":"57.2337","APOAPSIS":"534.769","RA_OF_ASC_NODE":"144.3520","GP_ID":"186143293","DECAY_DATE":null,"MEAN_ELEMENT_THEORY":"SGP4","PERIAPSIS":"532.692","MEAN_MOTION_DOT":"-0.01062253","TLE_LINE2":"2 48681  53.0487 144.3520 0001503  57.2337  29.5596 15.10809980  3753","LAUNCH_DATE":"2021-05-26","CLASSIFICATION_TYPE":"U","MEAN_MOTION_DDOT":"0.0000000000000","BSTAR":"-0.06823100000000","TIME_SYSTEM":"UTC","INCLINATION":"53.0487"},{"MEAN_MOTION_DOT":"-0.01097630","TLE_LINE2":"2 48682  53.0448 138.3420 0001321  91.6848 142.4134 15.57208868  3808","LAUNCH_DATE":"2021-05-26","PERIAPSIS":"394.846","MEAN_ELEMENT_THEORY":"SGP4","TIME_SYSTEM":"UTC","INCLINATION":"53.0448","MEAN_MOTION_DDOT":"0.0000000000000","BSTAR":"-0.01634300000000","CLASSIFICATION_TYPE":"U","GP_ID":"186143945","RA_OF_ASC_NODE":"138.3420","APOAPSIS":"396.636","ARG_OF_PERICENTER":"91.6848","DECAY_DATE":null,"MEAN_ANOMALY":"142.4134","TLE_LINE1":"1 48682U 21044AW  21276.91668981 -.01097630  00000-0 -16343-1 0  9991","FILE":"3143202","MEAN_MOTION":"15.57208868","SEMIMAJOR_AXIS":"6773.876","REF_FRAME":"TEME","ELEMENT_SET_NO":"999","OBJECT_ID":"2021-044AW","EPOCH":"2021-10-03T22:00:01.999584","REV_AT_EPOCH":"380","RCS_SIZE":"LARGE","OBJECT_NAME":"STARLINK-2743","EPHEMERIS_TYPE":"0","COUNTRY_CODE":"US","ECCENTRICITY":"0.00013210","SITE":"AFETR","CENTER_NAME":"EARTH","PERIOD":"92.473","OBJECT_TYPE":"PAYLOAD","NORAD_CAT_ID":"48682"},{"REV_AT_EPOCH":"371","RCS_SIZE":"LARGE","COUNTRY_CODE":"US","EPHEMERIS_TYPE":"0","OBJECT_NAME":"STARLINK-2756","ECCENTRICITY":"0.00013180","PERIOD":"92.380","CENTER_NAME":"EARTH","SITE":"AFETR","NORAD_CAT_ID":"48683","OBJECT_TYPE":"PAYLOAD","MEAN_ANOMALY":"205.0498","TLE_LINE1":"1 48683U 21044AX  21276.91668981 -.01100853  00000-0 -15449-1 0  9990","FILE":"3143202","SEMIMAJOR_AXIS":"6769.330","MEAN_MOTION":"15.58777815","REF_FRAME":"TEME","ELEMENT_SET_NO":"999","EPOCH":"2021-10-03T22:00:01.999584","OBJECT_ID":"2021-044AX","GP_ID":"186143401","RA_OF_ASC_NODE":"138.2603","APOAPSIS":"392.087","ARG_OF_PERICENTER":"65.8768","DECAY_DATE":null,"LAUNCH_DATE":"2021-05-26","TLE_LINE2":"2 48683  53.0462 138.2603 0001318  65.8768 205.0498 15.58777815  3710","MEAN_MOTION_DOT":"-0.01100853","PERIAPSIS":"390.303","MEAN_ELEMENT_THEORY":"SGP4","INCLINATION":"53.0462","TIME_SYSTEM":"UTC","MEAN_MOTION_DDOT":"0.0000000000000","BSTAR":"-0.01544900000000","CLASSIFICATION_TYPE":"U"},{"DECAY_DATE":null,"GP_ID":"186143822","ARG_OF_PERICENTER":"63.2462","RA_OF_ASC_NODE":"149.3136","APOAPSIS":"548.532","BSTAR":"-0.00002512800000","MEAN_MOTION_DDOT":"0.0000000000000","TIME_SYSTEM":"UTC","INCLINATION":"53.0526","CLASSIFICATION_TYPE":"U","MEAN_MOTION_DOT":"-0.00000656","LAUNCH_DATE":"2021-05-26","TLE_LINE2":"2 48684  53.0526 149.3136 0001858  63.2462 296.8717 15.06389652 20350","MEAN_ELEMENT_THEORY":"SGP4","PERIAPSIS":"545.959","ECCENTRICITY":"0.00018580","OBJECT_TYPE":"PAYLOAD","NORAD_CAT_ID":"48684","CENTER_NAME":"EARTH","SITE":"AFETR","PERIOD":"95.593","RCS_SIZE":"LARGE","REV_AT_EPOCH":"2035","OBJECT_NAME":"STARLINK-2741","COUNTRY_CODE":"US","EPHEMERIS_TYPE":"0","ELEMENT_SET_NO":"999","REF_FRAME":"TEME","OBJECT_ID":"2021-044AY","EPOCH":"2021-10-03T20:41:44.012544","MEAN_ANOMALY":"296.8717","MEAN_MOTION":"15.06389652","SEMIMAJOR_AXIS":"6925.380","FILE":"3143202","TLE_LINE1":"1 48684U 21044AY  21276.86231496 -.00000656  00000-0 -25128-4 0  9999"},{"MEAN_MOTION_DOT":"-0.01105316","LAUNCH_DATE":"2021-05-26","TLE_LINE2":"2 48685  53.0462 138.2737 0001406  48.1863 260.1601 15.60541132  3710","PERIAPSIS":"385.144","MEAN_ELEMENT_THEORY":"SGP4","TIME_SYSTEM":"UTC","INCLINATION":"53.0462","BSTAR":"-0.01450100000000","MEAN_MOTION_DDOT":"0.0000000000000","CLASSIFICATION_TYPE":"U","GP_ID":"186143606","APOAPSIS":"387.046","RA_OF_ASC_NODE":"138.2737","ARG_OF_PERICENTER":"48.1863","DECAY_DATE":null,"MEAN_ANOMALY":"260.1601","TLE_LINE1":"1 48685U 21044AZ  21276.91668981 -.01105316  00000-0 -14501-1 0  9999","FILE":"3143202","MEAN_MOTION":"15.60541132","SEMIMAJOR_AXIS":"6764.230","REF_FRAME":"TEME","ELEMENT_SET_NO":"999","OBJECT_ID":"2021-044AZ","EPOCH":"2021-10-03T22:00:01.999584","REV_AT_EPOCH":"371","RCS_SIZE":"LARGE","OBJECT_NAME":"STARLINK-2751","EPHEMERIS_TYPE":"0","COUNTRY_CODE":"US","ECCENTRICITY":"0.00014060","CENTER_NAME":"EARTH","SITE":"AFETR","PERIOD":"92.276","OBJECT_TYPE":"PAYLOAD","NORAD_CAT_ID":"48685"}];
